[{"OBJECT_NAME":"FORMOSAT 7-1","OBJECT_ID":"2019-036L","EPOCH":"2026-04-26T10:25:52.743936","MEAN_MOTION":14.96278944,"ECCENTRICITY":4.69e-5,"INCLINATION":23.999,"RA_OF_ASC_NODE":21.2327,"ARG_OF_PERICENTER":299.8983,"MEAN_ANOMALY":60.1471,"EPHEMERIS_TYPE":0,"CLASSIFICATION_TYPE":"U","NORAD_CAT_ID":44349,"ELEMENT_SET_NO":999,"REV_AT_EPOCH":37689,"BSTAR":0.00025617,"MEAN_MOTION_DOT":3.267e-5,"MEAN_MOTION_DDOT":0},{"OBJECT_NAME":"FORMOSAT 7-4","OBJECT_ID":"2019-036M","EPOCH":"2026-04-25T14:09:34.570080","MEAN_MOTION":14.96268699,"ECCENTRICITY":7.764e-5,"INCLINATION":23.9977,"RA_OF_ASC_NODE":89.0255,"ARG_OF_PERICENTER":298.4253,"MEAN_ANOMALY":61.617,"EPHEMERIS_TYPE":0,"CLASSIFICATION_TYPE":"U","NORAD_CAT_ID":44350,"ELEMENT_SET_NO":999,"REV_AT_EPOCH":37618,"BSTAR":0.00018158385,"MEAN_MOTION_DOT":2.403e-5,"MEAN_MOTION_DDOT":0},{"OBJECT_NAME":"FORMOSAT 7-2","OBJECT_ID":"2019-036N","EPOCH":"2026-04-26T09:54:06.835968","MEAN_MOTION":14.96275618,"ECCENTRICITY":3.09e-5,"INCLINATION":23.9969,"RA_OF_ASC_NODE":137.7976,"ARG_OF_PERICENTER":333.7499,"MEAN_ANOMALY":26.2986,"EPHEMERIS_TYPE":0,"CLASSIFICATION_TYPE":"U","NORAD_CAT_ID":44351,"ELEMENT_SET_NO":999,"REV_AT_EPOCH":37582,"BSTAR":0.00020394,"MEAN_MOTION_DOT":2.662e-5,"MEAN_MOTION_DDOT":0},{"OBJECT_NAME":"FORMOSAT 7-6","OBJECT_ID":"2019-036Q","EPOCH":"2026-04-25T16:17:52.901664","MEAN_MOTION":14.96278169,"ECCENTRICITY":9.1e-5,"INCLINATION":23.9988,"RA_OF_ASC_NODE":323.5649,"ARG_OF_PERICENTER":191.8995,"MEAN_ANOMALY":168.1485,"EPHEMERIS_TYPE":0,"CLASSIFICATION_TYPE":"U","NORAD_CAT_ID":44353,"ELEMENT_SET_NO":999,"REV_AT_EPOCH":37394,"BSTAR":0.00021899309,"MEAN_MOTION_DOT":2.836e-5,"MEAN_MOTION_DDOT":0},{"OBJECT_NAME":"FORMOSAT 7-5","OBJECT_ID":"2019-036V","EPOCH":"2026-04-26T10:57:38.288160","MEAN_MOTION":14.96286992,"ECCENTRICITY":2.66e-5,"INCLINATION":23.9986,"RA_OF_ASC_NODE":257.0736,"ARG_OF_PERICENTER":17.8723,"MEAN_ANOMALY":342.1787,"EPHEMERIS_TYPE":0,"CLASSIFICATION_TYPE":"U","NORAD_CAT_ID":44358,"ELEMENT_SET_NO":999,"REV_AT_EPOCH":37459,"BSTAR":0.00026556,"MEAN_MOTION_DOT":3.376e-5,"MEAN_MOTION_DDOT":0},{"OBJECT_NAME":"METEOR-M2 2","OBJECT_ID":"2019-038A","EPOCH":"2026-04-26T11:21:05.243904","MEAN_MOTION":14.24351008,"ECCENTRICITY":0.0001743,"INCLINATION":98.9133,"RA_OF_ASC_NODE":103.0021,"ARG_OF_PERICENTER":126.7987,"MEAN_ANOMALY":233.3351,"EPHEMERIS_TYPE":0,"CLASSIFICATION_TYPE":"U","NORAD_CAT_ID":44387,"ELEMENT_SET_NO":999,"REV_AT_EPOCH":35393,"BSTAR":5.6388e-5,"MEAN_MOTION_DOT":8.4e-7,"MEAN_MOTION_DDOT":0},{"OBJECT_NAME":"COSMOS 2535","OBJECT_ID":"2019-039A","EPOCH":"2026-04-26T11:56:56.529600","MEAN_MOTION":14.91835398,"ECCENTRICITY":0.0009035,"INCLINATION":97.5812,"RA_OF_ASC_NODE":146.6333,"ARG_OF_PERICENTER":34.9176,"MEAN_ANOMALY":325.2634,"EPHEMERIS_TYPE":0,"CLASSIFICATION_TYPE":"U","NORAD_CAT_ID":44421,"ELEMENT_SET_NO":999,"REV_AT_EPOCH":36893,"BSTAR":0.00012832,"MEAN_MOTION_DOT":1.242e-5,"MEAN_MOTION_DDOT":0},{"OBJECT_NAME":"GLOBAL-4","OBJECT_ID":"2019-054E","EPOCH":"2026-04-26T12:43:04.828800","MEAN_MOTION":15.59695603,"ECCENTRICITY":0.0005721,"INCLINATION":45.0062,"RA_OF_ASC_NODE":173.3664,"ARG_OF_PERICENTER":336.8196,"MEAN_ANOMALY":23.244,"EPHEMERIS_TYPE":0,"CLASSIFICATION_TYPE":"U","NORAD_CAT_ID":44499,"ELEMENT_SET_NO":999,"REV_AT_EPOCH":37228,"BSTAR":0.00060826,"MEAN_MOTION_DOT":0.00049762,"MEAN_MOTION_DDOT":0},{"OBJECT_NAME":"ZY-1 02D","OBJECT_ID":"2019-059A","EPOCH":"2026-04-26T11:42:40.368672","MEAN_MOTION":14.35468982,"ECCENTRICITY":2.37e-5,"INCLINATION":98.3222,"RA_OF_ASC_NODE":179.7947,"ARG_OF_PERICENTER":346.031,"MEAN_ANOMALY":14.0869,"EPHEMERIS_TYPE":0,"CLASSIFICATION_TYPE":"U","NORAD_CAT_ID":44528,"ELEMENT_SET_NO":999,"REV_AT_EPOCH":34692,"BSTAR":0.00016268,"MEAN_MOTION_DOT":4.26e-6,"MEAN_MOTION_DDOT":0},{"OBJECT_NAME":"TAURUS-1 (JINNIUZUO 1)","OBJECT_ID":"2019-059C","EPOCH":"2026-04-26T12:09:56.282688","MEAN_MOTION":14.71504519,"ECCENTRICITY":0.0009845,"INCLINATION":98.6373,"RA_OF_ASC_NODE":278.1645,"ARG_OF_PERICENTER":114.9284,"MEAN_ANOMALY":245.2945,"EPHEMERIS_TYPE":0,"CLASSIFICATION_TYPE":"U","NORAD_CAT_ID":44530,"ELEMENT_SET_NO":999,"REV_AT_EPOCH":35104,"BSTAR":0.00077463,"MEAN_MOTION_DOT":4.757e-5,"MEAN_MOTION_DDOT":0},{"OBJECT_NAME":"ZHUHAI-1 03B","OBJECT_ID":"2019-060C","EPOCH":"2026-04-26T11:52:11.161632","MEAN_MOTION":15.51159406,"ECCENTRICITY":0.0010131,"INCLINATION":97.5465,"RA_OF_ASC_NODE":271.6087,"ARG_OF_PERICENTER":143.7241,"MEAN_ANOMALY":216.47,"EPHEMERIS_TYPE":0,"CLASSIFICATION_TYPE":"U","NORAD_CAT_ID":44536,"ELEMENT_SET_NO":999,"REV_AT_EPOCH":36830,"BSTAR":0.00061081,"MEAN_MOTION_DOT":0.00035744,"MEAN_MOTION_DDOT":0},{"OBJECT_NAME":"ZHUHAI-1 03C","OBJECT_ID":"2019-060D","EPOCH":"2026-04-26T11:33:45.284832","MEAN_MOTION":15.85414994,"ECCENTRICITY":0.0003555,"INCLINATION":97.5502,"RA_OF_ASC_NODE":283.1325,"ARG_OF_PERICENTER":101.1081,"MEAN_ANOMALY":259.0589,"EPHEMERIS_TYPE":0,"CLASSIFICATION_TYPE":"U","NORAD_CAT_ID":44537,"ELEMENT_SET_NO":999,"REV_AT_EPOCH":36901,"BSTAR":0.0011102,"MEAN_MOTION_DOT":0.00271839,"MEAN_MOTION_DDOT":0},{"OBJECT_NAME":"ZHUHAI-1 03D","OBJECT_ID":"2019-060E","EPOCH":"2026-04-26T12:26:59.719200","MEAN_MOTION":15.46775559,"ECCENTRICITY":0.0008935,"INCLINATION":97.5324,"RA_OF_ASC_NODE":264.2099,"ARG_OF_PERICENTER":132.0938,"MEAN_ANOMALY":228.1072,"EPHEMERIS_TYPE":0,"CLASSIFICATION_TYPE":"U","NORAD_CAT_ID":44538,"ELEMENT_SET_NO":999,"REV_AT_EPOCH":36808,"BSTAR":0.00081296,"MEAN_MOTION_DOT":0.00040847,"MEAN_MOTION_DDOT":0},{"OBJECT_NAME":"ZHUHAI-1 03E","OBJECT_ID":"2019-060F","EPOCH":"2026-04-26T12:40:31.811808","MEAN_MOTION":15.39328709,"ECCENTRICITY":0.0006063,"INCLINATION":97.554,"RA_OF_ASC_NODE":264.7751,"ARG_OF_PERICENTER":195.1563,"MEAN_ANOMALY":164.9502,"EPHEMERIS_TYPE":0,"CLASSIFICATION_TYPE":"U","NORAD_CAT_ID":44539,"ELEMENT_SET_NO":999,"REV_AT_EPOCH":36781,"BSTAR":0.000555,"MEAN_MOTION_DOT":0.00021623,"MEAN_MOTION_DDOT":0},{"OBJECT_NAME":"ATLAS 5 CENTAUR DEB","OBJECT_ID":"2018-079BG","EPOCH":"2026-04-25T07:01:52.661568","MEAN_MOTION":1.77432201,"ECCENTRICITY":0.4735183,"INCLINATION":13.5687,"RA_OF_ASC_NODE":43.6162,"ARG_OF_PERICENTER":290.7446,"MEAN_ANOMALY":25.8235,"EPHEMERIS_TYPE":0,"CLASSIFICATION_TYPE":"U","NORAD_CAT_ID":44694,"ELEMENT_SET_NO":999,"REV_AT_EPOCH":4562,"BSTAR":0,"MEAN_MOTION_DOT":-1.01e-6,"MEAN_MOTION_DDOT":0},{"OBJECT_NAME":"GAOFEN-7","OBJECT_ID":"2019-072A","EPOCH":"2026-04-26T13:40:47.261280","MEAN_MOTION":15.21446245,"ECCENTRICITY":0.00155,"INCLINATION":97.2466,"RA_OF_ASC_NODE":179.9666,"ARG_OF_PERICENTER":207.8991,"MEAN_ANOMALY":152.1416,"EPHEMERIS_TYPE":0,"CLASSIFICATION_TYPE":"U","NORAD_CAT_ID":44703,"ELEMENT_SET_NO":999,"REV_AT_EPOCH":35979,"BSTAR":0.00020989,"MEAN_MOTION_DOT":4.662e-5,"MEAN_MOTION_DDOT":0},{"OBJECT_NAME":"JILIN-1 GAOFEN 2A","OBJECT_ID":"2019-075A","EPOCH":"2026-04-26T11:54:01.185120","MEAN_MOTION":15.37882271,"ECCENTRICITY":0.000501,"INCLINATION":97.4966,"RA_OF_ASC_NODE":199.1364,"ARG_OF_PERICENTER":262.0008,"MEAN_ANOMALY":98.0668,"EPHEMERIS_TYPE":0,"CLASSIFICATION_TYPE":"U","NORAD_CAT_ID":44777,"ELEMENT_SET_NO":999,"REV_AT_EPOCH":35693,"BSTAR":0.00046393,"MEAN_MOTION_DOT":0.00017216,"MEAN_MOTION_DDOT":0}]
