FORMOSAT 7-1            
1 44349U 19036L   26116.43463824  .00003267  00000+0  25617-3 0  9994
2 44349  23.9990  21.2327 0000469 299.8983  60.1471 14.96278944376898
FORMOSAT 7-4            
1 44350U 19036M   26115.58998345  .00002403  00000+0  18158-3 0  9995
2 44350  23.9977  89.0255 0000776 298.4253  61.6170 14.96268699376183
FORMOSAT 7-2            
1 44351U 19036N   26116.41257912  .00002662  00000+0  20394-3 0  9999
2 44351  23.9969 137.7976 0000309 333.7499  26.2986 14.96275618375824
FORMOSAT 7-6            
1 44353U 19036Q   26115.67908451  .00002836  00000+0  21899-3 0  9993
2 44353  23.9988 323.5649 0000910 191.8995 168.1485 14.96278169373946
FORMOSAT 7-5            
1 44358U 19036V   26116.45669315  .00003376  00000+0  26556-3 0  9993
2 44358  23.9986 257.0736 0000266  17.8723 342.1787 14.96286992374591
METEOR-M2 2             
1 44387U 19038A   26116.47297736  .00000084  00000+0  56388-4 0  9993
2 44387  98.9133 103.0021 0001743 126.7987 233.3351 14.24351008353934
COSMOS 2535             
1 44421U 19039A   26116.49787650  .00001242  00000+0  12832-3 0  9996
2 44421  97.5812 146.6333 0009035  34.9176 325.2634 14.91835398368937
GLOBAL-4                
1 44499U 19054E   26116.52991700  .00049762  00000+0  60826-3 0  9990
2 44499  45.0062 173.3664 0005721 336.8196  23.2440 15.59695603372286
ZY-1 02D                
1 44528U 19059A   26116.48796723  .00000426  00000+0  16268-3 0  9996
2 44528  98.3222 179.7947 0000237 346.0310  14.0869 14.35468982346926
TAURUS-1 (JINNIUZUO 1)  
1 44530U 19059C   26116.50690142  .00004757  00000+0  77463-3 0  9995
2 44530  98.6373 278.1645 0009845 114.9284 245.2945 14.71504519351043
ZHUHAI-1 03B            
1 44536U 19060C   26116.49457363  .00035744  00000+0  61081-3 0  9996
2 44536  97.5465 271.6087 0010131 143.7241 216.4700 15.51159406368306
ZHUHAI-1 03C            
1 44537U 19060D   26116.48177413  .00271839  00000+0  11102-2 0  9996
2 44537  97.5502 283.1325 0003555 101.1081 259.0589 15.85414994369014
ZHUHAI-1 03D            
1 44538U 19060E   26116.51874675  .00040847  00000+0  81296-3 0  9990
2 44538  97.5324 264.2099 0008935 132.0938 228.1072 15.46775559368080
ZHUHAI-1 03E            
1 44539U 19060F   26116.52814597  .00021623  00000+0  55500-3 0  9999
2 44539  97.5540 264.7751 0006063 195.1563 164.9502 15.39328709367813
ATLAS 5 CENTAUR DEB     
1 44694U 18079BG  26115.29297062 -.00000101  00000+0  00000+0 0  9995
2 44694  13.5687  43.6162 4735183 290.7446  25.8235  1.77432201 45623
GAOFEN-7                
1 44703U 19072A   26116.56999145  .00004662  00000+0  20989-3 0  9999
2 44703  97.2466 179.9666 0015500 207.8991 152.1416 15.21446245359792
JILIN-1 GAOFEN 2A       
1 44777U 19075A   26116.49584705  .00017216  00000+0  46393-3 0  9993
2 44777  97.4966 199.1364 0005010 262.0008  98.0668 15.37882271356936
